{"type": "FeatureCollection", "features": [ {"type": "Feature", "properties": {"norad_id": 31537, "name": "FENGYUN 1C DEB", "group": "fengyun-1c-debris", "lat": 75.23085225563213, "lon": -3.9306061563778805, "alt_km": 976.9059519956791, "timestamp": "2025-12-10T14:53:37.374198+00:00", "meta": {"OBJECT_NAME": "FENGYUN 1C DEB", "OBJECT_ID": "1999-025BYC", "EPOCH": "2025-12-08T16:46:23.961216", "MEAN_MOTION": 14.20228394, "ECCENTRICITY": 0.03487435, "INCLINATION": 99.2959, "RA_OF_ASC_NODE": 135.6379, "ARG_OF_PERICENTER": 335.9541, "MEAN_ANOMALY": 22.5681, "EPHEMERIS_TYPE": 0, "CLASSIFICATION_TYPE": "U", "NORAD_CAT_ID": 31537, "ELEMENT_SET_NO": 999, "REV_AT_EPOCH": 93224, "BSTAR": 0.0026860598, "MEAN_MOTION_DOT": 0.00010571, "MEAN_MOTION_DDOT": 0}, "tle": {"line1": "1 31537U 99025BYC 25342.69888844  .00010571  00000+0  26861-2 0  9993", "line2": "2 31537  99.2959 135.6379 0348743 335.9541  22.5681 14.20228394932246"}}, "geometry": {"type": "Point", "coordinates": [-3.9306061563778805, 75.23085225563213]}}, {"type": "Feature", "properties": {"norad_id": 31538, "name": "FENGYUN 1C DEB", "group": "fengyun-1c-debris", "lat": 63.22132207560933, "lon": -163.5138452329978, "alt_km": 575.1964928167681, "timestamp": "2025-12-10T14:53:37.374209+00:00", "meta": {"OBJECT_NAME": "FENGYUN 1C DEB", "OBJECT_ID": "1999-025BYD", "EPOCH": "2025-11-18T21:37:36.814656", "MEAN_MOTION": 14.96885168, "ECCENTRICITY": 0.00235351, "INCLINATION": 98.2479, "RA_OF_ASC_NODE": 190.2519, "ARG_OF_PERICENTER": 356.6213, "MEAN_ANOMALY": 3.4844, "EPHEMERIS_TYPE": 0, "CLASSIFICATION_TYPE": "U", "NORAD_CAT_ID": 31538, "ELEMENT_SET_NO": 999, "REV_AT_EPOCH": 66646, "BSTAR": 0.0047226763, "MEAN_MOTION_DOT": 0.00054817, "MEAN_MOTION_DDOT": 0}, "tle": {"line1": "1 31538U 99025BYD 25322.90112054  .00054817  00000+0  47227-2 0  9999", "line2": "2 31538  98.2479 190.2519 0023535 356.6213   3.4844 14.96885168666469"}}, "geometry": {"type": "Point", "coordinates": [-163.5138452329978, 63.22132207560933]}}, {"type": "Feature", "properties": {"norad_id": 31540, "name": "FENGYUN 1C DEB", "group": "fengyun-1c-debris", "lat": 73.66163749977638, "lon": -3.199652279737942, "alt_km": 782.5547050944633, "timestamp": "2025-12-10T14:53:37.374219+00:00", "meta": {"OBJECT_NAME": "FENGYUN 1C DEB", "OBJECT_ID": "1999-025BYF", "EPOCH": "2025-12-09T05:38:36.929760", "MEAN_MOTION": 14.65331731, "ECCENTRICITY": 0.0177015, "INCLINATION": 99.0575, "RA_OF_ASC_NODE": 142.307, "ARG_OF_PERICENTER": 311.8781, "MEAN_ANOMALY": 46.743, "EPHEMERIS_TYPE": 0, "CLASSIFICATION_TYPE": "U", "NORAD_CAT_ID": 31540, "ELEMENT_SET_NO": 999, "REV_AT_EPOCH": 98250, "BSTAR": 0.0011276, "MEAN_MOTION_DOT": 7.611e-05, "MEAN_MOTION_DDOT": 0}, "tle": {"line1": "1 31540U 99025BYF 25343.23514965  .00007611  00000+0  11276-2 0  9993", "line2": "2 31540  99.0575 142.3070 0177015 311.8781  46.7430 14.65331731982509"}}, "geometry": {"type": "Point", "coordinates": [-3.199652279737942, 73.66163749977638]}}, {"type": "Feature", "properties": {"norad_id": 31541, "name": "FENGYUN 1C DEB", "group": "fengyun-1c-debris", "lat": 0.4047862941851007, "lon": 126.75214728813168, "alt_km": 689.8181978839511, "timestamp": "2025-12-10T14:53:37.374228+00:00", "meta": {"OBJECT_NAME": "FENGYUN 1C DEB", "OBJECT_ID": "1999-025BYG", "EPOCH": "2025-12-10T03:26:48.845760", "MEAN_MOTION": 14.6875522, "ECCENTRICITY": 0.00784662, "INCLINATION": 98.9798, "RA_OF_ASC_NODE": 126.2927, "ARG_OF_PERICENTER": 248.2543, "MEAN_ANOMALY": 111.0295, "EPHEMERIS_TYPE": 0, "CLASSIFICATION_TYPE": "U", "NORAD_CAT_ID": 31541, "ELEMENT_SET_NO": 999, "REV_AT_EPOCH": 98385, "BSTAR": 0.0021260243, "MEAN_MOTION_DOT": 0.00012948, "MEAN_MOTION_DDOT": 0}, "tle": {"line1": "1 31541U 99025BYG 25344.14362090  .00012948  00000+0  21260-2 0  9998", "line2": "2 31541  98.9798 126.2927 0078466 248.2543 111.0295 14.68755220983856"}}, "geometry": {"type": "Point", "coordinates": [126.75214728813168, 0.4047862941851007]}}, {"type": "Feature", "properties": {"norad_id": 31542, "name": "FENGYUN 1C DEB", "group": "fengyun-1c-debris", "lat": -43.81482077607239, "lon": -149.83439323977603, "alt_km": 789.2537172743878, "timestamp": "2025-12-10T14:53:37.374237+00:00", "meta": {"OBJECT_NAME": "FENGYUN 1C DEB", "OBJECT_ID": "1999-025BYH", "EPOCH": "2025-12-08T14:34:57.942048", "MEAN_MOTION": 14.22760731, "ECCENTRICITY": 0.00472884, "INCLINATION": 98.7313, "RA_OF_ASC_NODE": 36.6499, "ARG_OF_PERICENTER": 218.708, "MEAN_ANOMALY": 141.0706, "EPHEMERIS_TYPE": 0, "CLASSIFICATION_TYPE": "U", "NORAD_CAT_ID": 31542, "ELEMENT_SET_NO": 999, "REV_AT_EPOCH": 95881, "BSTAR": 0.0020971405, "MEAN_MOTION_DOT": 4.714e-05, "MEAN_MOTION_DDOT": 0}, "tle": {"line1": "1 31542U 99025BYH 25342.60761507  .00004714  00000+0  20971-2 0  9994", "line2": "2 31542  98.7313  36.6499 0047288 218.7080 141.0706 14.22760731958813"}}, "geometry": {"type": "Point", "coordinates": [-149.83439323977603, -43.81482077607239]}}, {"type": "Feature", "properties": {"norad_id": 31544, "name": "FENGYUN 1C DEB", "group": "fengyun-1c-debris", "lat": 19.121010365892918, "lon": 32.82027037354122, "alt_km": 850.2899211611802, "timestamp": "2025-12-10T14:53:37.374248+00:00", "meta": {"OBJECT_NAME": "FENGYUN 1C DEB", "OBJECT_ID": "1999-025BYK", "EPOCH": "2025-12-09T09:56:19.046112", "MEAN_MOTION": 14.14322372, "ECCENTRICITY": 0.00316481, "INCLINATION": 98.8297, "RA_OF_ASC_NODE": 34.7171, "ARG_OF_PERICENTER": 278.6332, "MEAN_ANOMALY": 81.1256, "EPHEMERIS_TYPE": 0, "CLASSIFICATION_TYPE": "U", "NORAD_CAT_ID": 31544, "ELEMENT_SET_NO": 999, "REV_AT_EPOCH": 95710, "BSTAR": 0.001174357, "MEAN_MOTION_DOT": 2.211e-05, "MEAN_MOTION_DDOT": 0}, "tle": {"line1": "1 31544U 99025BYK 25343.41410933  .00002211  00000+0  11744-2 0  9998", "line2": "2 31544  98.8297  34.7171 0031648 278.6332  81.1256 14.14322372957102"}}, "geometry": {"type": "Point", "coordinates": [32.82027037354122, 19.121010365892918]}}, {"type": "Feature", "properties": {"norad_id": 31546, "name": "FENGYUN 1C DEB", "group": "fengyun-1c-debris", "lat": -14.526919735078133, "lon": -127.85537286476469, "alt_km": 786.7116104465131, "timestamp": "2025-12-10T14:53:37.374257+00:00", "meta": {"OBJECT_NAME": "FENGYUN 1C DEB", "OBJECT_ID": "1999-025BYM", "EPOCH": "2025-12-10T03:47:25.941696", "MEAN_MOTION": 14.13097359, "ECCENTRICITY": 0.01465205, "INCLINATION": 98.2433, "RA_OF_ASC_NODE": 53.871, "ARG_OF_PERICENTER": 144.2592, "MEAN_ANOMALY": 216.8498, "EPHEMERIS_TYPE": 0, "CLASSIFICATION_TYPE": "U", "NORAD_CAT_ID": 31546, "ELEMENT_SET_NO": 999, "REV_AT_EPOCH": 94752, "BSTAR": 0.0024564073, "MEAN_MOTION_DOT": 5.047e-05, "MEAN_MOTION_DDOT": 0}, "tle": {"line1": "1 31546U 99025BYM 25344.15793914  .00005047  00000+0  24564-2 0  9999", "line2": "2 31546  98.2433  53.8710 0146520 144.2592 216.8498 14.13097359947526"}}, "geometry": {"type": "Point", "coordinates": [-127.85537286476469, -14.526919735078133]}}, {"type": "Feature", "properties": {"norad_id": 31547, "name": "FENGYUN 1C DEB", "group": "fengyun-1c-debris", "lat": -65.52736621819253, "lon": -172.26295217970932, "alt_km": 784.1488687596611, "timestamp": "2025-12-10T14:53:37.374571+00:00", "meta": {"OBJECT_NAME": "FENGYUN 1C DEB", "OBJECT_ID": "1999-025BYN", "EPOCH": "2025-12-09T09:02:48.494688", "MEAN_MOTION": 14.23103077, "ECCENTRICITY": 0.00537834, "INCLINATION": 99.0872, "RA_OF_ASC_NODE": 27.0415, "ARG_OF_PERICENTER": 262.539, "MEAN_ANOMALY": 96.9674, "EPHEMERIS_TYPE": 0, "CLASSIFICATION_TYPE": "U", "NORAD_CAT_ID": 31547, "ELEMENT_SET_NO": 999, "REV_AT_EPOCH": 63969, "BSTAR": 0.0021137662, "MEAN_MOTION_DOT": 4.797e-05, "MEAN_MOTION_DDOT": 0}, "tle": {"line1": "1 31547U 99025BYN 25343.37695017  .00004797  00000+0  21138-2 0  9993", "line2": "2 31547  99.0872  27.0415 0053783 262.5390  96.9674 14.23103077639691"}}, "geometry": {"type": "Point", "coordinates": [-172.26295217970932, -65.52736621819253]}}, {"type": "Feature", "properties": {"norad_id": 31550, "name": "FENGYUN 1C DEB", "group": "fengyun-1c-debris", "lat": -64.19796188440705, "lon": 1.7396921156009517, "alt_km": 633.934832823109, "timestamp": "2025-12-10T14:53:37.374586+00:00", "meta": {"OBJECT_NAME": "FENGYUN 1C DEB", "OBJECT_ID": "1999-025BYR", "EPOCH": "2025-12-08T18:10:11.266176", "MEAN_MOTION": 14.40173204, "ECCENTRICITY": 0.01902168, "INCLINATION": 98.3115, "RA_OF_ASC_NODE": 342.3294, "ARG_OF_PERICENTER": 284.9063, "MEAN_ANOMALY": 73.1133, "EPHEMERIS_TYPE": 0, "CLASSIFICATION_TYPE": "U", "NORAD_CAT_ID": 31550, "ELEMENT_SET_NO": 999, "REV_AT_EPOCH": 65397, "BSTAR": 0.0013773158, "MEAN_MOTION_DOT": 5.342e-05, "MEAN_MOTION_DDOT": 0}, "tle": {"line1": "1 31550U 99025BYR 25342.75707484  .00005342  00000+0  13773-2 0  9993", "line2": "2 31550  98.3115 342.3294 0190216 284.9063  73.1133 14.40173204653975"}}, "geometry": {"type": "Point", "coordinates": [1.7396921156009517, -64.19796188440705]}}, {"type": "Feature", "properties": {"norad_id": 31552, "name": "FENGYUN 1C DEB", "group": "fengyun-1c-debris", "lat": -43.3340319669604, "lon": -81.78706319077226, "alt_km": 805.0885043216367, "timestamp": "2025-12-10T14:53:37.374596+00:00", "meta": {"OBJECT_NAME": "FENGYUN 1C DEB", "OBJECT_ID": "1999-025BYT", "EPOCH": "2025-12-10T07:13:02.887104", "MEAN_MOTION": 14.45602719, "ECCENTRICITY": 0.00856681, "INCLINATION": 98.6214, "RA_OF_ASC_NODE": 106.1177, "ARG_OF_PERICENTER": 28.3549, "MEAN_ANOMALY": 332.2265, "EPHEMERIS_TYPE": 0, "CLASSIFICATION_TYPE": "U", "NORAD_CAT_ID": 31552, "ELEMENT_SET_NO": 999, "REV_AT_EPOCH": 95841, "BSTAR": 0.004253832, "MEAN_MOTION_DOT": 0.0001571, "MEAN_MOTION_DDOT": 0}, "tle": {"line1": "1 31552U 99025BYT 25344.30072786  .00015710  00000+0  42538-2 0  9999", "line2": "2 31552  98.6214 106.1177 0085668  28.3549 332.2265 14.45602719958414"}}, "geometry": {"type": "Point", "coordinates": [-81.78706319077226, -43.3340319669604]}}]}